{
  "norad_id": 63642,
  "name": "STARLINK-33836",
  "history": [
    {
      "epoch": "2026-03-28T18:45:03.944160Z",
      "apogee_km": 484.92287742575354,
      "perigee_km": 481.12659663665363,
      "latitude_deg": -3.84577418791313e-06,
      "longitude_deg": 150.1934458859217,
      "height_km": 483.03777741246813,
      "semi_major_axis_km": 6861.161737031203,
      "eccentricity": 0.00027665,
      "inclination_deg": 42.999,
      "raan_deg": 257.6567,
      "arg_perigee_deg": 262.8732,
      "mean_anomaly_deg": 97.1805,
      "mean_motion_rev_day": 15.27588135
    },
    {
      "epoch": "2026-03-29T04:10:01.396128Z",
      "apogee_km": 484.84555158417334,
      "perigee_km": 481.3284881515892,
      "latitude_deg": 4.760267736576694e-05,
      "longitude_deg": 6.349317856779127,
      "height_km": 482.6957450332677,
      "semi_major_axis_km": 6861.224019867881,
      "eccentricity": 0.0002563,
      "inclination_deg": 43.0049,
      "raan_deg": 255.4386,
      "arg_perigee_deg": 275.5281,
      "mean_anomaly_deg": 84.5279,
      "mean_motion_rev_day": 15.27567335
    },
    {
      "epoch": "2026-03-30T03:42:23.073408Z",
      "apogee_km": 484.3833136835319,
      "perigee_km": 481.574372857297,
      "latitude_deg": -1.4070174758023449e-05,
      "longitude_deg": 6.753903744988626,
      "height_km": 482.7133573850396,
      "semi_major_axis_km": 6861.115843270414,
      "eccentricity": 0.0002047,
      "inclination_deg": 43.0042,
      "raan_deg": 249.9003,
      "arg_perigee_deg": 271.7613,
      "mean_anomaly_deg": 88.3004,
      "mean_motion_rev_day": 15.27603462
    },
    {
      "epoch": "2026-03-30T11:33:09.796896Z",
      "apogee_km": 483.71021377811667,
      "perigee_km": 482.16331608707605,
      "latitude_deg": -3.184555780653323e-05,
      "longitude_deg": -113.10983262039618,
      "height_km": 482.6163971498785,
      "semi_major_axis_km": 6861.0737649325965,
      "eccentricity": 0.00011273,
      "inclination_deg": 43.002,
      "raan_deg": 248.0535,
      "arg_perigee_deg": 277.2096,
      "mean_anomaly_deg": 82.8627,
      "mean_motion_rev_day": 15.27617515
    },
    {
      "epoch": "2026-03-30T19:23:55.825728Z",
      "apogee_km": 484.0030243539568,
      "perigee_km": 481.7771699430996,
      "latitude_deg": -1.5869606325992743e-05,
      "longitude_deg": 127.0290693307869,
      "height_km": 482.5860820520033,
      "semi_major_axis_km": 6861.027097148528,
      "eccentricity": 0.00016221,
      "inclination_deg": 43.0011,
      "raan_deg": 246.2064,
      "arg_perigee_deg": 274.175,
      "mean_anomaly_deg": 85.8916,
      "mean_motion_rev_day": 15.27633101
    },
    {
      "epoch": "2026-03-31T17:22:06.562848Z",
      "apogee_km": 483.9842846685169,
      "perigee_km": 481.98495382866713,
      "latitude_deg": 2.853172546587317e-05,
      "longitude_deg": 151.41181848465033,
      "height_km": 482.8644183358561,
      "semi_major_axis_km": 6861.121619248592,
      "eccentricity": 0.0001457,
      "inclination_deg": 43.0022,
      "raan_deg": 241.0361,
      "arg_perigee_deg": 264.0958,
      "mean_anomaly_deg": 95.9728,
      "mean_motion_rev_day": 15.27601533
    },
    {
      "epoch": "2026-04-01T16:54:27.790848Z",
      "apogee_km": 484.02071316229103,
      "perigee_km": 482.098205914328,
      "latitude_deg": -2.7383848297018573e-05,
      "longitude_deg": 151.8172882882301,
      "height_km": 482.6716568921936,
      "semi_major_axis_km": 6861.196459538309,
      "eccentricity": 0.0001401,
      "inclination_deg": 43.0006,
      "raan_deg": 235.4968,
      "arg_perigee_deg": 279.8585,
      "mean_anomaly_deg": 80.2108,
      "mean_motion_rev_day": 15.27576539
    },
    {
      "epoch": "2026-04-02T16:26:47.998464Z",
      "apogee_km": 484.2813556577903,
      "perigee_km": 481.5765862307244,
      "latitude_deg": 2.78039209496661e-05,
      "longitude_deg": 152.2273394004076,
      "height_km": 482.29041864393747,
      "semi_major_axis_km": 6861.065970944257,
      "eccentricity": 0.00019711,
      "inclination_deg": 43.0,
      "raan_deg": 229.9577,
      "arg_perigee_deg": 287.9009,
      "mean_anomaly_deg": 72.1628,
      "mean_motion_rev_day": 15.27620118
    },
    {
      "epoch": "2026-04-03T09:42:30.647232Z",
      "apogee_km": 483.1398544230451,
      "perigee_km": 482.66946140697837,
      "latitude_deg": 1.532932387540435e-05,
      "longitude_deg": -111.47009577603156,
      "height_km": 482.4686577679952,
      "semi_major_axis_km": 6861.0416579150115,
      "eccentricity": 3.428e-05,
      "inclination_deg": 43.0023,
      "raan_deg": 225.8969,
      "arg_perigee_deg": 25.9221,
      "mean_anomaly_deg": 334.1648,
      "mean_motion_rev_day": 15.27628238
    },
    {
      "epoch": "2026-04-04T15:31:29.168832Z",
      "apogee_km": 483.43265386688563,
      "perigee_km": 482.61205920784323,
      "latitude_deg": -2.2892897828967324e-05,
      "longitude_deg": 153.04521268299894,
      "height_km": 482.8312760243528,
      "semi_major_axis_km": 6861.159356537364,
      "eccentricity": 5.98e-05,
      "inclination_deg": 43.0023,
      "raan_deg": 218.8806,
      "arg_perigee_deg": 265.4324,
      "mean_anomaly_deg": 94.6459,
      "mean_motion_rev_day": 15.2758893
    },
    {
      "epoch": "2026-04-05T15:03:52.574112Z",
      "apogee_km": 485.3299387708539,
      "perigee_km": 481.0306373581534,
      "latitude_deg": -3.851789455228683e-05,
      "longitude_deg": 153.43882589490923,
      "height_km": 482.56488466377,
      "semi_major_axis_km": 6861.317288064503,
      "eccentricity": 0.0003133,
      "inclination_deg": 43.0002,
      "raan_deg": 213.3385,
      "arg_perigee_deg": 280.5446,
      "mean_anomaly_deg": 79.5052,
      "mean_motion_rev_day": 15.27536188
    },
    {
      "epoch": "2026-04-05T15:03:52.574976Z",
      "apogee_km": 485.3298015445089,
      "perigee_km": 481.03077458449934,
      "latitude_deg": -4.0064150956154825e-05,
      "longitude_deg": 153.43882063606975,
      "height_km": 482.5649097728279,
      "semi_major_axis_km": 6861.317288064503,
      "eccentricity": 0.00031328,
      "inclination_deg": 43.0002,
      "raan_deg": 213.3385,
      "arg_perigee_deg": 280.5446,
      "mean_anomaly_deg": 79.5052,
      "mean_motion_rev_day": 15.27536188
    },
    {
      "epoch": "2026-04-06T00:28:49.406592Z",
      "apogee_km": 484.25620826353224,
      "perigee_km": 481.90418300886904,
      "latitude_deg": -5.469384042492313e-05,
      "longitude_deg": 9.603713307490137,
      "height_km": 483.005254314284,
      "semi_major_axis_km": 6861.217195636201,
      "eccentricity": 0.0001714,
      "inclination_deg": 43.0017,
      "raan_deg": 211.1269,
      "arg_perigee_deg": 262.7732,
      "mean_anomaly_deg": 97.2924,
      "mean_motion_rev_day": 15.27569614
    },
    {
      "epoch": "2026-04-07T14:08:32.874432Z",
      "apogee_km": 484.1510723412284,
      "perigee_km": 481.827208917397,
      "latitude_deg": -1.418197848169858e-05,
      "longitude_deg": 154.26180991263408,
      "height_km": 482.51106217188175,
      "semi_major_axis_km": 6861.126140629312,
      "eccentricity": 0.00016935,
      "inclination_deg": 42.9991,
      "raan_deg": 202.2628,
      "arg_perigee_deg": 282.6734,
      "mean_anomaly_deg": 77.3928,
      "mean_motion_rev_day": 15.27600023
    },
    {
      "epoch": "2026-04-07T15:42:42.221376Z",
      "apogee_km": 484.33491465224415,
      "perigee_km": 481.6357491268782,
      "latitude_deg": 1.7544825452469876e-05,
      "longitude_deg": 130.28945061365113,
      "height_km": 482.43784427728093,
      "semi_major_axis_km": 6861.122331889561,
      "eccentricity": 0.0001967,
      "inclination_deg": 42.9993,
      "raan_deg": 201.8938,
      "arg_perigee_deg": 283.9153,
      "mean_anomaly_deg": 76.148,
      "mean_motion_rev_day": 15.27601295
    },
    {
      "epoch": "2026-04-08T13:40:54.672672Z",
      "apogee_km": 483.8297220599907,
      "perigee_km": 482.2432815229067,
      "latitude_deg": -9.618996642912992e-06,
      "longitude_deg": 154.6663574841383,
      "height_km": 482.3324045652464,
      "semi_major_axis_km": 6861.173501791449,
      "eccentricity": 0.00011561,
      "inclination_deg": 42.9999,
      "raan_deg": 196.7249,
      "arg_perigee_deg": 52.8921,
      "mean_anomaly_deg": 307.2036,
      "mean_motion_rev_day": 15.27584206
    },
    {
      "epoch": "2026-04-09T13:13:14.432736Z",
      "apogee_km": 483.88495641374084,
      "perigee_km": 482.09502560432793,
      "latitude_deg": -1.8098540445974328e-05,
      "longitude_deg": 155.07950683218746,
      "height_km": 482.80394321039347,
      "semi_major_axis_km": 6861.126991009034,
      "eccentricity": 0.00013044,
      "inclination_deg": 42.9998,
      "raan_deg": 191.1871,
      "arg_perigee_deg": 267.6076,
      "mean_anomaly_deg": 92.4626,
      "mean_motion_rev_day": 15.27599739
    },
    {
      "epoch": "2026-04-10T12:45:35.111232Z",
      "apogee_km": 483.4381027245163,
      "perigee_km": 482.588692305304,
      "latitude_deg": -2.7929838143080293e-05,
      "longitude_deg": 155.48821781868116,
      "height_km": 482.981618501566,
      "semi_major_axis_km": 6861.15039751491,
      "eccentricity": 6.19e-05,
      "inclination_deg": 43.002,
      "raan_deg": 185.6487,
      "arg_perigee_deg": 243.1119,
      "mean_anomaly_deg": 116.9669,
      "mean_motion_rev_day": 15.27591922
    },
    {
      "epoch": "2026-04-11T13:52:05.999808Z",
      "apogee_km": 484.0872615144672,
      "perigee_km": 482.0686920682965,
      "latitude_deg": -1.208266986299766e-05,
      "longitude_deg": 131.9187575538032,
      "height_km": 482.73539095855523,
      "semi_major_axis_km": 6861.214976791382,
      "eccentricity": 0.0001471,
      "inclination_deg": 42.9994,
      "raan_deg": 179.7391,
      "arg_perigee_deg": 276.7878,
      "mean_anomaly_deg": 83.2806,
      "mean_motion_rev_day": 15.27570355
    }
  ]
}